[{"OBJECT_NAME":"RAPTOR1","OBJECT_ID":"2024-028C","EPOCH":"2026-03-09T12:42:01.746432","MEAN_MOTION":13.70310646,"ECCENTRICITY":0.0011567,"INCLINATION":39.9898,"RA_OF_ASC_NODE":141.7891,"ARG_OF_PERICENTER":33.7881,"MEAN_ANOMALY":326.3601,"EPHEMERIS_TYPE":0,"CLASSIFICATION_TYPE":"U","NORAD_CAT_ID":58957,"ELEMENT_SET_NO":999,"REV_AT_EPOCH":10338,"BSTAR":4.5249e-5,"MEAN_MOTION_DOT":-3.8e-7,"MEAN_MOTION_DDOT":0},{"OBJECT_NAME":"CZ-6A DEB","OBJECT_ID":"2022-151AGE","EPOCH":"2026-03-09T08:55:40.586592","MEAN_MOTION":13.94788769,"ECCENTRICITY":0.01378778,"INCLINATION":98.891,"RA_OF_ASC_NODE":40.1234,"ARG_OF_PERICENTER":11.0032,"MEAN_ANOMALY":349.4094,"EPHEMERIS_TYPE":0,"CLASSIFICATION_TYPE":"U","NORAD_CAT_ID":56654,"ELEMENT_SET_NO":999,"REV_AT_EPOCH":14656,"BSTAR":0.00055702106,"MEAN_MOTION_DOT":7.66e-6,"MEAN_MOTION_DDOT":0}]
